[{"OBJECT_NAME":"ONEWEB-0429","OBJECT_ID":"2021-132AH","EPOCH":"2026-04-07T03:59:47.123232","MEAN_MOTION":13.18685242,"ECCENTRICITY":0.0001891,"INCLINATION":87.9227,"RA_OF_ASC_NODE":349.5804,"ARG_OF_PERICENTER":79.5781,"MEAN_ANOMALY":280.5564,"EPHEMERIS_TYPE":0,"CLASSIFICATION_TYPE":"U","NORAD_CAT_ID":50500,"ELEMENT_SET_NO":999,"REV_AT_EPOCH":21222,"BSTAR":0.00010262,"MEAN_MOTION_DOT":5.3e-07,"MEAN_MOTION_DDOT":0.0},{"OBJECT_NAME":"ONEWEB-0430","OBJECT_ID":"2021-132AJ","EPOCH":"2026-04-07T03:43:09.629184","MEAN_MOTION":13.18687254,"ECCENTRICITY":0.0001884,"INCLINATION":87.9229,"RA_OF_ASC_NODE":349.5808,"ARG_OF_PERICENTER":73.1278,"MEAN_ANOMALY":287.0061,"EPHEMERIS_TYPE":0,"CLASSIFICATION_TYPE":"U","NORAD_CAT_ID":50501,"ELEMENT_SET_NO":999,"REV_AT_EPOCH":21226,"BSTAR":0.00015183,"MEAN_MOTION_DOT":7.3e-07,"MEAN_MOTION_DDOT":0.0},{"OBJECT_NAME":"ONEWEB-0432","OBJECT_ID":"2021-132AK","EPOCH":"2026-04-07T04:32:13.520832","MEAN_MOTION":13.18647668,"ECCENTRICITY":0.0001384,"INCLINATION":87.9232,"RA_OF_ASC_NODE":349.5434,"ARG_OF_PERICENTER":57.4128,"MEAN_ANOMALY":302.7138,"EPHEMERIS_TYPE":0,"CLASSIFICATION_TYPE":"U","NORAD_CAT_ID":50502,"ELEMENT_SET_NO":999,"REV_AT_EPOCH":21222,"BSTAR":0.00016145000000000002,"MEAN_MOTION_DOT":7.7e-07,"MEAN_MOTION_DDOT":0.0},{"OBJECT_NAME":"ONEWEB-0440","OBJECT_ID":"2021-132AL","EPOCH":"2026-04-07T04:11:39.772032","MEAN_MOTION":13.18685368,"ECCENTRICITY":0.0001993,"INCLINATION":87.9236,"RA_OF_ASC_NODE":349.5673,"ARG_OF_PERICENTER":89.3382,"MEAN_ANOMALY":270.7978,"EPHEMERIS_TYPE":0,"CLASSIFICATION_TYPE":"U","NORAD_CAT_ID":50503,"ELEMENT_SET_NO":999,"REV_AT_EPOCH":21221,"BSTAR":5.5033e-05,"MEAN_MOTION_DOT":3.5e-07,"MEAN_MOTION_DDOT":0.0},{"OBJECT_NAME":"ONEWEB-0450","OBJECT_ID":"2021-132AM","EPOCH":"2026-04-07T04:02:21.555456","MEAN_MOTION":13.18685737,"ECCENTRICITY":0.0002021,"INCLINATION":87.9225,"RA_OF_ASC_NODE":349.5813,"ARG_OF_PERICENTER":77.4959,"MEAN_ANOMALY":282.64,"EPHEMERIS_TYPE":0,"CLASSIFICATION_TYPE":"U","NORAD_CAT_ID":50504,"ELEMENT_SET_NO":999,"REV_AT_EPOCH":21224,"BSTAR":0.00017835000000000003,"MEAN_MOTION_DOT":8.3e-07,"MEAN_MOTION_DDOT":0.0},{"OBJECT_NAME":"ONEWEB-0410","OBJECT_ID":"2022-012A","EPOCH":"2026-04-07T05:12:23.572800","MEAN_MOTION":13.17652053,"ECCENTRICITY":5.7e-05,"INCLINATION":87.9194,"RA_OF_ASC_NODE":19.9454,"ARG_OF_PERICENTER":111.8324,"MEAN_ANOMALY":248.2868,"EPHEMERIS_TYPE":0,"CLASSIFICATION_TYPE":"U","NORAD_CAT_ID":51622,"ELEMENT_SET_NO":999,"REV_AT_EPOCH":20435,"BSTAR":0.00017728,"MEAN_MOTION_DOT":8.2e-07,"MEAN_MOTION_DDOT":0.0},{"OBJECT_NAME":"ONEWEB-0411","OBJECT_ID":"2022-012B","EPOCH":"2026-04-06T22:10:48.784800","MEAN_MOTION":13.10376064,"ECCENTRICITY":0.0002245,"INCLINATION":87.883,"RA_OF_ASC_NODE":50.443,"ARG_OF_PERICENTER":66.8374,"MEAN_ANOMALY":293.299,"EPHEMERIS_TYPE":0,"CLASSIFICATION_TYPE":"U","NORAD_CAT_ID":51623,"ELEMENT_SET_NO":999,"REV_AT_EPOCH":19995,"BSTAR":0.0013089999999999998,"MEAN_MOTION_DOT":4.7e-06,"MEAN_MOTION_DDOT":0.0},{"OBJECT_NAME":"ONEWEB-0415","OBJECT_ID":"2022-012C","EPOCH":"2026-04-07T03:35:52.108224","MEAN_MOTION":13.10374062,"ECCENTRICITY":0.0001967,"INCLINATION":87.8831,"RA_OF_ASC_NODE":50.4002,"ARG_OF_PERICENTER":72.5954,"MEAN_ANOMALY":287.5388,"EPHEMERIS_TYPE":0,"CLASSIFICATION_TYPE":"U","NORAD_CAT_ID":51624,"ELEMENT_SET_NO":999,"REV_AT_EPOCH":19998,"BSTAR":0.00096441,"MEAN_MOTION_DOT":3.49e-06,"MEAN_MOTION_DDOT":0.0},{"OBJECT_NAME":"ONEWEB-0416","OBJECT_ID":"2022-012D","EPOCH":"2026-04-07T03:52:38.065152","MEAN_MOTION":13.10374253,"ECCENTRICITY":0.0001757,"INCLINATION":87.8825,"RA_OF_ASC_NODE":50.418,"ARG_OF_PERICENTER":65.6455,"MEAN_ANOMALY":294.4856,"EPHEMERIS_TYPE":0,"CLASSIFICATION_TYPE":"U","NORAD_CAT_ID":51625,"ELEMENT_SET_NO":999,"REV_AT_EPOCH":20002,"BSTAR":0.0018926000000000001,"MEAN_MOTION_DOT":6.73e-06,"MEAN_MOTION_DDOT":0.0},{"OBJECT_NAME":"ONEWEB-0422","OBJECT_ID":"2022-012E","EPOCH":"2026-04-07T05:27:00.205344","MEAN_MOTION":13.17647796,"ECCENTRICITY":0.0002445,"INCLINATION":87.9192,"RA_OF_ASC_NODE":19.9463,"ARG_OF_PERICENTER":85.4569,"MEAN_ANOMALY":274.6842,"EPHEMERIS_TYPE":0,"CLASSIFICATION_TYPE":"U","NORAD_CAT_ID":51626,"ELEMENT_SET_NO":999,"REV_AT_EPOCH":20446,"BSTAR":0.00030279,"MEAN_MOTION_DOT":1.3e-06,"MEAN_MOTION_DDOT":0.0},{"OBJECT_NAME":"ONEWEB-0423","OBJECT_ID":"2022-012F","EPOCH":"2026-04-07T05:17:16.939680","MEAN_MOTION":13.1765056,"ECCENTRICITY":0.000185,"INCLINATION":87.919,"RA_OF_ASC_NODE":19.9564,"ARG_OF_PERICENTER":81.6103,"MEAN_ANOMALY":278.5239,"EPHEMERIS_TYPE":0,"CLASSIFICATION_TYPE":"U","NORAD_CAT_ID":51627,"ELEMENT_SET_NO":999,"REV_AT_EPOCH":20435,"BSTAR":0.00023333999999999999,"MEAN_MOTION_DOT":1.03e-06,"MEAN_MOTION_DDOT":0.0},{"OBJECT_NAME":"ONEWEB-0425","OBJECT_ID":"2022-012G","EPOCH":"2026-04-07T02:17:00.728448","MEAN_MOTION":13.10371657,"ECCENTRICITY":0.0001573,"INCLINATION":87.8829,"RA_OF_ASC_NODE":50.411,"ARG_OF_PERICENTER":86.8033,"MEAN_ANOMALY":273.3274,"EPHEMERIS_TYPE":0,"CLASSIFICATION_TYPE":"U","NORAD_CAT_ID":51628,"ELEMENT_SET_NO":999,"REV_AT_EPOCH":20001,"BSTAR":0.0013999000000000001,"MEAN_MOTION_DOT":5.01e-06,"MEAN_MOTION_DDOT":0.0},{"OBJECT_NAME":"ONEWEB-0428","OBJECT_ID":"2022-012H","EPOCH":"2026-04-07T03:38:16.556928","MEAN_MOTION":13.10376607,"ECCENTRICITY":0.0001926,"INCLINATION":87.8825,"RA_OF_ASC_NODE":50.4104,"ARG_OF_PERICENTER":81.3301,"MEAN_ANOMALY":278.8044,"EPHEMERIS_TYPE":0,"CLASSIFICATION_TYPE":"U","NORAD_CAT_ID":51629,"ELEMENT_SET_NO":999,"REV_AT_EPOCH":19998,"BSTAR":0.0009471000000000001,"MEAN_MOTION_DOT":3.43e-06,"MEAN_MOTION_DDOT":0.0},{"OBJECT_NAME":"ONEWEB-0431","OBJECT_ID":"2022-012J","EPOCH":"2026-04-07T02:55:02.425440","MEAN_MOTION":13.10370745,"ECCENTRICITY":0.0002358,"INCLINATION":87.8833,"RA_OF_ASC_NODE":50.4045,"ARG_OF_PERICENTER":69.0331,"MEAN_ANOMALY":291.1049,"EPHEMERIS_TYPE":0,"CLASSIFICATION_TYPE":"U","NORAD_CAT_ID":51630,"ELEMENT_SET_NO":999,"REV_AT_EPOCH":20003,"BSTAR":-0.0019011,"MEAN_MOTION_DOT":-6.51e-06,"MEAN_MOTION_DDOT":0.0},{"OBJECT_NAME":"ONEWEB-0434","OBJECT_ID":"2022-012K","EPOCH":"2026-04-07T06:01:53.590944","MEAN_MOTION":13.10371603,"ECCENTRICITY":0.0001381,"INCLINATION":87.8823,"RA_OF_ASC_NODE":50.4049,"ARG_OF_PERICENTER":96.7649,"MEAN_ANOMALY":263.3636,"EPHEMERIS_TYPE":0,"CLASSIFICATION_TYPE":"U","NORAD_CAT_ID":51631,"ELEMENT_SET_NO":999,"REV_AT_EPOCH":20003,"BSTAR":0.0013613,"MEAN_MOTION_DOT":4.88e-06,"MEAN_MOTION_DDOT":0.0},{"OBJECT_NAME":"ONEWEB-0435","OBJECT_ID":"2022-012L","EPOCH":"2026-04-06T21:03:52.625088","MEAN_MOTION":13.10373631,"ECCENTRICITY":0.0002168,"INCLINATION":87.8816,"RA_OF_ASC_NODE":50.4693,"ARG_OF_PERICENTER":82.7808,"MEAN_ANOMALY":277.3565,"EPHEMERIS_TYPE":0,"CLASSIFICATION_TYPE":"U","NORAD_CAT_ID":51632,"ELEMENT_SET_NO":999,"REV_AT_EPOCH":19997,"BSTAR":-0.00019769,"MEAN_MOTION_DOT":-5.6e-07,"MEAN_MOTION_DDOT":0.0}]