ONEWEB-0429             
1 50500U 21132AH  26097.16651763  .00000053  00000+0  10262-3 0  9999
2 50500  87.9227 349.5804 0001891  79.5781 280.5564 13.18685242212225
ONEWEB-0430             
1 50501U 21132AJ  26097.15497256  .00000073  00000+0  15183-3 0  9993
2 50501  87.9229 349.5808 0001884  73.1278 287.0061 13.18687254212268
ONEWEB-0432             
1 50502U 21132AK  26097.18904538  .00000077  00000+0  16145-3 0  9996
2 50502  87.9232 349.5434 0001384  57.4128 302.7138 13.18647668212223
ONEWEB-0440             
1 50503U 21132AL  26097.17476588  .00000035  00000+0  55033-4 0  9999
2 50503  87.9236 349.5673 0001993  89.3382 270.7978 13.18685368212219
ONEWEB-0450             
1 50504U 21132AM  26097.16830504  .00000083  00000+0  17835-3 0  9991
2 50504  87.9225 349.5813 0002021  77.4959 282.6400 13.18685737212240
ONEWEB-0410             
1 51622U 22012A   26097.21693950  .00000082  00000+0  17728-3 0  9999
2 51622  87.9194  19.9454 0000570 111.8324 248.2868 13.17652053204355
ONEWEB-0411             
1 51623U 22012B   26096.92417575  .00000470  00000+0  13090-2 0  9992
2 51623  87.8830  50.4430 0002245  66.8374 293.2990 13.10376064199954
ONEWEB-0415             
1 51624U 22012C   26097.14990866  .00000349  00000+0  96441-3 0  9994
2 51624  87.8831  50.4002 0001967  72.5954 287.5388 13.10374062199985
ONEWEB-0416             
1 51625U 22012D   26097.16155168  .00000673  00000+0  18926-2 0  9996
2 51625  87.8825  50.4180 0001757  65.6455 294.4856 13.10374253200029
ONEWEB-0422             
1 51626U 22012E   26097.22708571  .00000130  00000+0  30279-3 0  9990
2 51626  87.9192  19.9463 0002445  85.4569 274.6842 13.17647796204462
ONEWEB-0423             
1 51627U 22012F   26097.22033495  .00000103  00000+0  23334-3 0  9991
2 51627  87.9190  19.9564 0001850  81.6103 278.5239 13.17650560204358
ONEWEB-0425             
1 51628U 22012G   26097.09514732  .00000501  00000+0  13999-2 0  9992
2 51628  87.8829  50.4110 0001573  86.8033 273.3274 13.10371657200016
ONEWEB-0428             
1 51629U 22012H   26097.15158052  .00000343  00000+0  94710-3 0  9994
2 51629  87.8825  50.4104 0001926  81.3301 278.8044 13.10376607199984
ONEWEB-0431             
1 51630U 22012J   26097.12155585 -.00000651  00000+0 -19011-2 0  9995
2 51630  87.8833  50.4045 0002358  69.0331 291.1049 13.10370745200034
ONEWEB-0434             
1 51631U 22012K   26097.25131471  .00000488  00000+0  13613-2 0  9996
2 51631  87.8823  50.4049 0001381  96.7649 263.3636 13.10371603200039
ONEWEB-0435             
1 51632U 22012L   26096.87769242 -.00000056  00000+0 -19769-3 0  9999
2 51632  87.8816  50.4693 0002168  82.7808 277.3565 13.10373631199972
